STARLINK-3355           
1 50808U 22001F   26068.47549460 -.00000350  00000+0 -39078-5 0  9998
2 50808  53.2175 160.0827 0001396 109.4344 250.6799 15.08830150230514
PRSC-S1                 
1 65055U 25164A   26068.60758212  .00007316  00000+0  46631-3 0  9991
2 65055  41.1290 129.3637 0004466 348.3012  11.7698 15.08919510 33403
